NORAD_CAT_ID,OBJECT_NAME,OBJECT_TYPE,EPOCH,MEAN_MOTION,ECCENTRICITY,INCLINATION,RA_OF_ASC_NODE,ARG_OF_PERICENTER,MEAN_ANOMALY,BSTAR,MEAN_MOTION_DOT,MEAN_MOTION_DDOT,TLE_LINE0,TLE_LINE1,TLE_LINE2,SEMIMAJOR_AXIS,PERIOD,APOGEE,PERIGEE,DECAYED
55936.0,STARLINK-5882,PAYLOAD,2023-11-12 22:38:39,14.98323192,0.0002929,70.0003,241.7331,270.4108,89.6716,0.00017683,2.017e-05,0.0,0 STARLINK-5882,1 55936U 23037Y   23316.94350977  .00002017  00000-0  17683-3 0  9990,2 55936  70.0003 241.7331 0002929 270.4108  89.6716 14.98323192 37497,6950.214,96.107,574.115,570.043,0.0
55936.0,STARLINK-5882,PAYLOAD,2023-11-13 03:27:02,14.98334891,0.0002919,70.0004,241.2282,269.0979,90.9846,8.6897e-05,9.44e-06,0.0,0 STARLINK-5882,1 55936U 23037Y   23317.14378404  .00000944  00000-0  86897-4 0  9999,2 55936  70.0004 241.2282 0002919 269.0979  90.9846 14.98334891 37865,6950.178,96.107,574.072,570.014,0.0
55936.0,STARLINK-5882,PAYLOAD,2023-11-13 05:03:10,14.98336557,0.0002911,70.0005,241.0599,269.101,90.9816,0.00010376,1.145e-05,0.0,0 STARLINK-5882,1 55936U 23037Y   23317.21054230  .00001145  00000-0  10376-3 0  9997,2 55936  70.0005 241.0599 0002911 269.1010  90.9816 14.98336557 37536,6950.173,96.107,574.061,570.014,0.0
55936.0,STARLINK-5882,PAYLOAD,2023-11-14 03:29:04,14.98329273,0.0002691,70.0012,238.7059,261.2896,98.7959,6.4254e-06,-1.6e-07,0.0,0 STARLINK-5882,1 55936U 23037Y   23318.14518850 -.00000016  00000-0  64254-5 0  9996,2 55936  70.0012 238.7059 0002691 261.2896  98.7959 14.98329273 38013,6950.195,96.107,573.93,570.19,0.0
55936.0,STARLINK-5882,PAYLOAD,2023-11-14 11:29:44,14.98357683,0.00028,70.0014,237.8625,271.7102,88.3736,-0.00051472,-6.233e-05,0.0,0 STARLINK-5882,1 55936U 23037Y   23318.47898191 -.00006233  00000-0 -51472-3 0  9995,2 55936  70.0014 237.8625 0002800 271.7102  88.3736 14.98357683 38061,6950.107,96.105,573.918,570.026,0.0
55936.0,STARLINK-5882,PAYLOAD,2023-11-14 17:54:16,14.98330327,0.0002713,70.0011,237.1897,269.3424,90.7424,-6.4739e-05,-8.65e-06,0.0,0 STARLINK-5882,1 55936U 23037Y   23318.74602984 -.00000865  00000-0 -64739-4 0  9994,2 55936  70.0011 237.1897 0002713 269.3424  90.7424 14.98330327 38107,6950.192,96.107,573.942,570.171,0.0
55936.0,STARLINK-5882,PAYLOAD,2023-11-15 05:07:13,14.98330805,0.0002699,70.0017,236.0116,268.455,91.63,-1.2872e-05,-2.47e-06,0.0,0 STARLINK-5882,1 55936U 23037Y   23319.21334767 -.00000247  00000-0 -12872-4 0  9993,2 55936  70.0017 236.0116 0002699 268.4550  91.6300 14.98330805 37831,6950.19,96.107,573.931,570.18,0.0
55936.0,STARLINK-5882,PAYLOAD,2023-11-16 00:20:50,14.98368607,0.0002497,70.0023,233.9907,279.2831,80.8046,-0.00068151,-8.223e-05,0.0,0 STARLINK-5882,1 55936U 23037Y   23320.01446966 -.00008223  00000-0 -68151-3 0  9990,2 55936  70.0023 233.9907 0002497 279.2831  80.8046 14.98368607 38299,6950.074,96.105,573.674,570.203,0.0
55936.0,STARLINK-5882,PAYLOAD,2023-11-16 05:09:14,14.9834571,0.0002437,70.0019,233.486,274.3805,85.7075,-0.00025763,-3.167e-05,0.0,0 STARLINK-5882,1 55936U 23037Y   23320.21474682 -.00003167  00000-0 -25763-3 0  9992,2 55936  70.0019 233.4860 0002437 274.3805  85.7075 14.98345710 38328,6950.144,96.106,573.703,570.316,0.0
55936.0,STARLINK-5882,PAYLOAD,2023-11-17 00:22:50,14.98328911,0.0002414,70.0028,231.4666,266.6218,93.4665,4.9996e-05,5.04e-06,0.0,0 STARLINK-5882,1 55936U 23037Y   23321.01586786  .00000504  00000-0  49996-4 0  9995,2 55936  70.0028 231.4666 0002414 266.6218  93.4665 14.98328911 38445,6950.196,96.107,573.739,570.383,0.0
55936.0,STARLINK-5882,PAYLOAD,2023-11-17 11:35:47,14.98325584,0.0002564,70.0031,230.2876,277.2993,82.7875,7.7493e-06,0.0,0.0,0 STARLINK-5882,1 55936U 23037Y   23321.48319208  .00000000  00000-0  77493-5 0  9994,2 55936  70.0031 230.2876 0002564 277.2993  82.7875 14.98325584 38170,6950.207,96.107,573.854,570.29,0.0
55936.0,STARLINK-5882,PAYLOAD,2023-11-17 22:48:44,14.98339421,0.0001479,70.004,229.1093,281.8049,78.2944,-5.1918e-05,-7.12e-06,0.0,0 STARLINK-5882,1 55936U 23037Y   23321.95051034 -.00000712  00000-0 -51918-4 0  9991,2 55936  70.0040 229.1093 0001479 281.8049  78.2944 14.98339421 38245,6950.164,96.106,573.057,571.001,0.0
55936.0,STARLINK-5882,PAYLOAD,2023-11-18 02:00:54,14.98407346,0.0002259,70.0027,228.7729,254.2007,105.8903,0.00085331,0.00010123,0.0,0 STARLINK-5882,1 55936U 23037Y   23322.08396205  .00010123  00000-0  85331-3 0  9998,2 55936  70.0027 228.7729 0002259 254.2007 105.8903 14.98407346 38600,6949.954,96.102,573.389,570.249,0.0
55936.0,STARLINK-5882,PAYLOAD,2023-11-18 11:37:48,14.98328908,0.0002361,70.0023,227.7633,277.2398,82.8493,-5.8521e-06,-1.63e-06,0.0,0 STARLINK-5882,1 55936U 23037Y   23322.48459099 -.00000163  00000-0 -58521-5 0  9991,2 55936  70.0023 227.7633 0002361 277.2398  82.8493 14.98328908 38661,6950.196,96.107,573.702,570.42,0.0
55936.0,STARLINK-5882,PAYLOAD,2023-11-19 03:39:08,14.98383262,0.0002684,70.0026,226.0797,262.6308,97.4546,-0.00088888,-0.00010697,0.0,0 STARLINK-5882,1 55936U 23037Y   23323.15218073 -.00010697  00000-0 -88888-3 0  9991,2 55936  70.0026 226.0797 0002684 262.6308  97.4546 14.98383262 38760,6950.028,96.104,573.759,570.028,0.0
55936.0,STARLINK-5882,PAYLOAD,2023-11-19 19:40:29,14.9832804,0.000264,70.0007,224.3976,269.8211,90.2646,4.5372e-05,4.48e-06,0.0,0 STARLINK-5882,1 55936U 23037Y   23323.81978645  .00000448  00000-0  45372-4 0  9995,2 55936  70.0007 224.3976 0002640 269.8211  90.2646 14.98328040 38869,6950.199,96.107,573.899,570.229,0.0
55936.0,STARLINK-5882,PAYLOAD,2023-11-19 21:16:37,14.98329515,0.0002669,70.0005,224.2293,269.864,90.2213,1.7482e-05,1.16e-06,0.0,0 STARLINK-5882,1 55936U 23037Y   23323.88654602  .00000116  00000-0  17482-4 0  9999,2 55936  70.0005 224.2293 0002669 269.8640  90.2213 14.98329515 38537,6950.194,96.107,573.914,570.204,0.0
55936.0,STARLINK-5882,PAYLOAD,2023-11-20 03:41:09,14.98359453,0.0002903,70.0003,223.5563,272.7314,87.3513,-0.00038176,-4.649e-05,0.0,0 STARLINK-5882,1 55936U 23037Y   23324.15357861 -.00004649  00000-0 -38176-3 0  9996,2 55936  70.0003 223.5563 0002903 272.7314  87.3513 14.98359453 38915,6950.102,96.105,573.984,569.949,0.0
55936.0,STARLINK-5882,PAYLOAD,2023-11-20 10:05:41,14.983662,0.0002828,70.0011,222.8816,275.2815,84.8021,-0.00058608,-7.085e-05,0.0,0 STARLINK-5882,1 55936U 23037Y   23324.42061484 -.00007085  00000-0 -58608-3 0  9998,2 55936  70.0011 222.8816 0002828 275.2815  84.8021 14.98366200 38618,6950.081,96.105,573.911,569.98,0.0
55936.0,STARLINK-5882,PAYLOAD,2023-11-20 19:42:30,14.98334332,0.0002728,70.0004,221.8729,270.7735,89.3112,-1.1553e-05,-2.31e-06,0.0,0 STARLINK-5882,1 55936U 23037Y   23324.82118221 -.00000231  00000-0 -11553-4 0  9999,2 55936  70.0004 221.8729 0002728 270.7735  89.3112 14.98334332 39019,6950.179,96.107,573.941,570.148,0.0
55936.0,STARLINK-5882,PAYLOAD,2023-11-20 21:18:38,14.98334663,0.0002676,70.0005,221.7044,271.2136,88.8716,-9.0108e-06,-2e-06,0.0,0 STARLINK-5882,1 55936U 23037Y   23324.88794192 -.00000200  00000-0 -90108-5 0  9992,2 55936  70.0005 221.7044 0002676 271.2136  88.8716 14.98334663 38685,6950.178,96.107,573.903,570.184,0.0
55936.0,STARLINK-5882,PAYLOAD,2023-11-21 10:07:42,14.98331204,0.0002498,70.0012,220.3579,272.1303,87.957,-1.665e-05,-2.92e-06,0.0,0 STARLINK-5882,1 55936U 23037Y   23325.42202260 -.00000292  00000-0 -16650-4 0  9993,2 55936  70.0012 220.3579 0002498 272.1303  87.9570 14.98331204 38764,6950.189,96.107,573.79,570.318,0.0
55936.0,STARLINK-5882,PAYLOAD,2023-11-21 21:20:39,14.98326992,0.0002287,70.0012,219.1805,261.976,98.114,-4.76e-06,-1.5e-06,0.0,0 STARLINK-5882,1 55936U 23037Y   23325.88934441 -.00000150  00000-0 -47600-5 0  9999,2 55936  70.0012 219.1805 0002287 261.9760  98.1140 14.98326992 38834,6950.202,96.107,573.657,570.478,0.0
55936.0,STARLINK-5882,PAYLOAD,2023-11-22 02:09:03,14.98333363,0.0002555,70.0003,218.6744,266.2168,93.8699,4.7282e-05,4.71e-06,0.0,0 STARLINK-5882,1 55936U 23037Y   23326.08961904  .00000471  00000-0  47282-4 0  9995,2 55936  70.0003 218.6744 0002555 266.2168  93.8699 14.98333363 39201,6950.182,96.107,573.823,570.272,0.0
55936.0,STARLINK-5882,PAYLOAD,2023-11-22 19:46:32,14.98329593,0.0002519,70.0011,216.8245,264.2162,95.871,-5.7017e-05,-7.73e-06,0.0,0 STARLINK-5882,1 55936U 23037Y   23326.82398365 -.00000773  00000-0 -57017-4 0  9996,2 55936  70.0011 216.8245 0002519 264.2162  95.8710 14.98329593 39316,6950.194,96.107,573.81,570.308,0.0
55936.0,STARLINK-5882,PAYLOAD,2023-11-22 21:22:40,14.98332834,0.0002348,70.001,216.6558,262.0773,98.012,-0.00011403,-1.453e-05,0.0,0 STARLINK-5882,1 55936U 23037Y   23326.89074303 -.00001453  00000-0 -11403-3 0  9990,2 55936  70.0010 216.6558 0002348 262.0773  98.0120 14.98332834 38988,6950.184,96.107,573.681,570.417,0.0
55936.0,STARLINK-5882,PAYLOAD,2023-11-23 02:11:03,14.98336885,0.0002502,70.0005,216.1508,270.745,89.3422,2.9952e-05,2.65e-06,0.0,0 STARLINK-5882,1 55936U 23037Y   23327.09101723  .00000265  00000-0  29952-4 0  9997,2 55936  70.0005 216.1508 0002502 270.7450  89.3422 14.98336885 39352,6950.172,96.107,573.776,570.298,0.0
55936.0,STARLINK-5882,PAYLOAD,2023-11-23 19:48:33,14.98322599,0.0002605,70.001,214.301,268.777,91.3091,-3.8045e-05,-5.47e-06,0.0,0 STARLINK-5882,1 55936U 23037Y   23327.82538884 -.00000547  00000-0 -38045-4 0  9998,2 55936  70.0010 214.3010 0002605 268.7770  91.3091 14.98322599 39466,6950.216,96.107,573.891,570.27,0.0
55936.0,STARLINK-5882,PAYLOAD,2023-11-23 21:24:41,14.983208,0.0002525,70.0004,214.1314,262.9233,97.1639,-3.9953e-05,-5.69e-06,0.0,0 STARLINK-5882,1 55936U 23037Y   23327.89214978 -.00000569  00000-0 -39953-4 0  9993,2 55936  70.0004 214.1314 0002525 262.9233  97.1639 14.98320800 39134,6950.221,96.108,573.841,570.331,0.0
55936.0,STARLINK-5882,PAYLOAD,2023-11-24 02:13:05,14.98322603,0.000255,70.0006,213.6261,279.5608,80.5263,2.7853e-07,-9e-07,0.0,0 STARLINK-5882,1 55936U 23037Y   23328.09242968 -.00000090  00000-0  27853-6 0  9992,2 55936  70.0006 213.6261 0002550 279.5608  80.5263 14.98322603 39164,6950.216,96.107,573.853,570.308,0.0
